{
  "type": "FeatureCollection",
  "features": [
    {
      "type": "Feature",
      "properties": {
        "norad_id": 34036,
        "name": "COSMOS 2251 DEB",
        "group": "cosmos-2251-debris",
        "lat": 5.125493620021367,
        "lon": 127.34367055401708,
        "alt_km": 587.6436137584697,
        "timestamp": "2025-12-24T07:45:06.592321+00:00",
        "meta_object_name": "COSMOS 2251 DEB",
        "meta_object_id": "1993-036HX",
        "meta_epoch": "2025-12-23T12:27:58.827168",
        "meta_mean_motion": 14.95795867,
        "meta_eccentricity": 0.00100153,
        "meta_inclination": 74.0198,
        "meta_ra_of_asc_node": 127.4942,
        "meta_arg_of_pericenter": 156.3014,
        "meta_mean_anomaly": 203.8634,
        "meta_ephemeris_type": 0,
        "meta_classification_type": "U",
        "meta_norad_cat_id": 34036,
        "meta_element_set_no": 999,
        "meta_rev_at_epoch": 88731,
        "meta_bstar": 0.0040448172,
        "meta_mean_motion_dot": 0.00045448,
        "meta_mean_motion_ddot": 0,
        "tle_line1": "1 34036U 93036HX  25357.51943087  .00045448  00000+0  40448-2 0  9992",
        "tle_line2": "2 34036  74.0198 127.4942 0010015 156.3014 203.8634 14.95795867887317"
      },
      "geometry": {
        "type": "Point",
        "coordinates": [
          127.34367055401708,
          5.125493620021367
        ]
      }
    },
    {
      "type": "Feature",
      "properties": {
        "norad_id": 34037,
        "name": "COSMOS 2251 DEB",
        "group": "cosmos-2251-debris",
        "lat": 51.5227252952096,
        "lon": 50.330802183521115,
        "alt_km": 736.3521684051175,
        "timestamp": "2025-12-24T07:45:06.592331+00:00",
        "meta_object_name": "COSMOS 2251 DEB",
        "meta_object_id": "1993-036HY",
        "meta_epoch": "2025-12-23T11:25:05.885184",
        "meta_mean_motion": 14.34690832,
        "meta_eccentricity": 0.00518073,
        "meta_inclination": 74.051,
        "meta_ra_of_asc_node": 30.7928,
        "meta_arg_of_pericenter": 77.4437,
        "meta_mean_anomaly": 283.2503,
        "meta_ephemeris_type": 0,
        "meta_classification_type": "U",
        "meta_norad_cat_id": 34037,
        "meta_element_set_no": 999,
        "meta_rev_at_epoch": 87871,
        "meta_bstar": 0.00038941969,
        "meta_mean_motion_dot": 1.094e-05,
        "meta_mean_motion_ddot": 0,
        "tle_line1": "1 34037U 93036HY  25357.47576256  .00001094  00000+0  38942-3 0  9994",
        "tle_line2": "2 34037  74.0510  30.7928 0051807  77.4437 283.2503 14.34690832878712"
      },
      "geometry": {
        "type": "Point",
        "coordinates": [
          50.330802183521115,
          51.5227252952096
        ]
      }
    },
    {
      "type": "Feature",
      "properties": {
        "norad_id": 34040,
        "name": "COSMOS 2251 DEB",
        "group": "cosmos-2251-debris",
        "lat": 61.68953693467118,
        "lon": 79.01274772523269,
        "alt_km": 899.2083510419125,
        "timestamp": "2025-12-24T07:45:06.592342+00:00",
        "meta_object_name": "COSMOS 2251 DEB",
        "meta_object_id": "1993-036JB",
        "meta_epoch": "2025-12-23T06:52:57.728064",
        "meta_mean_motion": 13.68391604,
        "meta_eccentricity": 0.03433961,
        "meta_inclination": 73.9556,
        "meta_ra_of_asc_node": 48.4352,
        "meta_arg_of_pericenter": 359.6695,
        "meta_mean_anomaly": 0.414,
        "meta_ephemeris_type": 0,
        "meta_classification_type": "U",
        "meta_norad_cat_id": 34040,
        "meta_element_set_no": 999,
        "meta_rev_at_epoch": 83744,
        "meta_bstar": 0.00069489491,
        "meta_mean_motion_dot": 8.74e-06,
        "meta_mean_motion_ddot": 0,
        "tle_line1": "1 34040U 93036JB  25357.28677926  .00000874  00000+0  69489-3 0  9998",
        "tle_line2": "2 34040  73.9556  48.4352 0343396 359.6695   0.4140 13.68391604837441"
      },
      "geometry": {
        "type": "Point",
        "coordinates": [
          79.01274772523269,
          61.68953693467118
        ]
      }
    },
    {
      "type": "Feature",
      "properties": {
        "norad_id": 34045,
        "name": "COSMOS 2251 DEB",
        "group": "cosmos-2251-debris",
        "lat": 67.77688591749116,
        "lon": -25.898600965790365,
        "alt_km": 763.0630932953172,
        "timestamp": "2025-12-24T07:45:06.592352+00:00",
        "meta_object_name": "COSMOS 2251 DEB",
        "meta_object_id": "1993-036JG",
        "meta_epoch": "2025-12-23T23:24:29.673216",
        "meta_mean_motion": 14.3407491,
        "meta_eccentricity": 0.0026127,
        "meta_inclination": 74.0396,
        "meta_ra_of_asc_node": 290.2733,
        "meta_arg_of_pericenter": 10.7214,
        "meta_mean_anomaly": 69.2979,
        "meta_ephemeris_type": 0,
        "meta_classification_type": "U",
        "meta_norad_cat_id": 34045,
        "meta_element_set_no": 999,
        "meta_rev_at_epoch": 88194,
        "meta_bstar": 9.6234246e-05,
        "meta_mean_motion_dot": 2.44e-06,
        "meta_mean_motion_ddot": 0,
        "tle_line1": "1 34045U 93036JG  25357.97534344  .00000244  00000+0  96234-4 0  9995",
        "tle_line2": "2 34045  74.0396 290.2733 0026127  10.7214  69.2979 14.34074910881941"
      },
      "geometry": {
        "type": "Point",
        "coordinates": [
          -25.898600965790365,
          67.77688591749116
        ]
      }
    },
    {
      "type": "Feature",
      "properties": {
        "norad_id": 34046,
        "name": "COSMOS 2251 DEB",
        "group": "cosmos-2251-debris",
        "lat": -39.97280089480564,
        "lon": -177.274663568605,
        "alt_km": 790.1934527273061,
        "timestamp": "2025-12-24T07:45:06.592363+00:00",
        "meta_object_name": "COSMOS 2251 DEB",
        "meta_object_id": "1993-036JH",
        "meta_epoch": "2025-12-23T05:54:21.399264",
        "meta_mean_motion": 14.46553163,
        "meta_eccentricity": 0.00745049,
        "meta_inclination": 74.0394,
        "meta_ra_of_asc_node": 350.8542,
        "meta_arg_of_pericenter": 71.1454,
        "meta_mean_anomaly": 304.4439,
        "meta_ephemeris_type": 0,
        "meta_classification_type": "U",
        "meta_norad_cat_id": 34046,
        "meta_element_set_no": 999,
        "meta_rev_at_epoch": 87978,
        "meta_bstar": 0.0012424159,
        "meta_mean_motion_dot": 4.61e-05,
        "meta_mean_motion_ddot": 0,
        "tle_line1": "1 34046U 93036JH  25357.24608101  .00004610  00000+0  12424-2 0  9997",
        "tle_line2": "2 34046  74.0394 350.8542 0074504  71.1454 304.4439 14.46553163879789"
      },
      "geometry": {
        "type": "Point",
        "coordinates": [
          -177.274663568605,
          -39.97280089480564
        ]
      }
    },
    {
      "type": "Feature",
      "properties": {
        "norad_id": 34050,
        "name": "COSMOS 2251 DEB",
        "group": "cosmos-2251-debris",
        "lat": 16.075224102364025,
        "lon": 165.46752617672922,
        "alt_km": 961.9277651018592,
        "timestamp": "2025-12-24T07:45:06.592373+00:00",
        "meta_object_name": "COSMOS 2251 DEB",
        "meta_object_id": "1993-036JM",
        "meta_epoch": "2025-12-23T10:53:59.277120",
        "meta_mean_motion": 13.9620468,
        "meta_eccentricity": 0.02147715,
        "meta_inclination": 74.0882,
        "meta_ra_of_asc_node": 351.6725,
        "meta_arg_of_pericenter": 53.2494,
        "meta_mean_anomaly": 62.2497,
        "meta_ephemeris_type": 0,
        "meta_classification_type": "U",
        "meta_norad_cat_id": 34050,
        "meta_element_set_no": 999,
        "meta_rev_at_epoch": 85581,
        "meta_bstar": 0.00070488954,
        "meta_mean_motion_dot": 1.154e-05,
        "meta_mean_motion_ddot": 0,
        "tle_line1": "1 34050U 93036JM  25357.45415830  .00001154  00000+0  70489-3 0  9996",
        "tle_line2": "2 34050  74.0882 351.6725 0214771  53.2494  62.2497 13.96204680855817"
      },
      "geometry": {
        "type": "Point",
        "coordinates": [
          165.46752617672922,
          16.075224102364025
        ]
      }
    },
    {
      "type": "Feature",
      "properties": {
        "norad_id": 34053,
        "name": "COSMOS 2251 DEB",
        "group": "cosmos-2251-debris",
        "lat": -27.0251075898418,
        "lon": -144.99683604045904,
        "alt_km": 828.2372375839886,
        "timestamp": "2025-12-24T07:45:06.592383+00:00",
        "meta_object_name": "COSMOS 2251 DEB",
        "meta_object_id": "1993-036JQ",
        "meta_epoch": "2025-12-22T23:51:02.586816",
        "meta_mean_motion": 13.49176354,
        "meta_eccentricity": 0.04227859,
        "meta_inclination": 73.8431,
        "meta_ra_of_asc_node": 225.6478,
        "meta_arg_of_pericenter": 12.5158,
        "meta_mean_anomaly": 348.6058,
        "meta_ephemeris_type": 0,
        "meta_classification_type": "U",
        "meta_norad_cat_id": 34053,
        "meta_element_set_no": 999,
        "meta_rev_at_epoch": 82822,
        "meta_bstar": 0.0005625187,
        "meta_mean_motion_dot": 5.92e-06,
        "meta_mean_motion_ddot": 0,
        "tle_line1": "1 34053U 93036JQ  25356.99377994  .00000592  00000+0  56252-3 0  9992",
        "tle_line2": "2 34053  73.8431 225.6478 0422785  12.5158 348.6058 13.49176354828226"
      },
      "geometry": {
        "type": "Point",
        "coordinates": [
          -144.99683604045904,
          -27.0251075898418
        ]
      }
    }
  ]
}